COSMOS 2433 [GLONASS-M] 
1 32275U 07052A   26185.74742425 -.00000043  00000+0  00000+0 0  9996
2 32275  65.5657 315.3427 0003117 200.1017 159.8949  2.13104407145437
COSMOS 2432 [GLONASS-M] 
1 32276U 07052B   26185.11473172 -.00000044  00000+0  00000+0 0  9999
2 32276  65.5822 315.4920 0007460 326.1716 212.2631  2.13103452145443
COSMOS 2434 [GLONASS-M] 
1 32393U 07065A   26186.35737861  .00000103  00000+0  00000+0 0  9993
2 32393  64.3195 191.3029 0001267 327.6857  30.0012  2.13101492144153
COSMOS 2436 [GLONASS-M] 
1 32395U 07065C   26185.95710714  .00000099  00000+0  00000+0 0  9992
2 32395  64.3280 191.3887 0017282 353.5770 189.2723  2.13100233144101
COSMOS 2456 [GLONASS-M] 
1 36111U 09070A   26183.67073075 -.00000011  00000+0  00000+0 0  9994
2 36111  65.0199  70.4441 0003835 338.5659 276.2480  2.13103720128753
COSMOS 2457 [GLONASS-M] 
1 36112U 09070B   26185.75624490 -.00000012  00000+0  00000+0 0  9990
2 36112  65.0071  70.2163 0003633 124.1851  57.8253  2.13101378128805
COSMOS 2460 [GLONASS-M] 
1 36402U 10007C   26185.99916333 -.00000043  00000+0  00000+0 0  9994
2 36402  65.4092 313.8639 0001892 127.0261 243.3018  2.13101962127113
COSMOS 2476 [GLONASS-M] 
1 37867U 11064A   26184.63293293 -.00000008  00000+0  00000+0 0  9998
2 37867  65.2791  72.3163 0022386 237.0520 304.2644  2.13104036114116
COSMOS 2477 [GLONASS-M] 
1 37868U 11064B   26185.82219672 -.00000010  00000+0  00000+0 0  9993
2 37868  65.2859  72.3558 0019445 238.0164 315.9569  2.13103228114136
COSMOS 2475 [GLONASS-M] 
1 37869U 11064C   26186.29370346 -.00000012  00000+0  00000+0 0  9994
2 37869  65.2933  72.3614 0025161 251.8133 258.9288  2.13102046114157
COSMOS 2485 [GLONASS-M] 
1 39155U 13019A   26179.64150049 -.00000037  00000+0  00000+0 0  9990
2 39155  65.4258  73.2198 0022897 232.6425 127.1980  2.13103400102529
COSMOS 2492 [GLONASS-M] 
1 39620U 14012A   26185.70073097 -.00000043  00000+0  00000+0 0  9999
2 39620  65.2863 313.3408 0010255 320.7541  39.1820  2.13103564 95618
COSMOS 2500 [GLONASS-M] 
1 40001U 14032A   26185.87026603 -.00000043  00000+0  00000+0 0  9995
2 40001  65.2215 313.0807 0007883 187.8592 172.1398  2.13106188 93830
COSMOS 2501 [GLONASS-K] 
1 40315U 14075A   26186.13252193  .00000100  00000+0  00000+0 0  9998
2 40315  63.6179 189.7508 0022670 212.6637 147.2190  2.13101464 90239
COSMOS 2514 [GLONASS-M] 
1 41330U 16008A   26184.70928353 -.00000044  00000+0  00000+0 0  9991
2 41330  65.0109 312.4399 0011921 199.8976 160.0650  2.13102677 80979
COSMOS 2522 [GLONASS-M] 
1 42939U 17055A   26184.54697543  .00000087  00000+0  00000+0 0  9992
2 42939  64.0801 191.3275 0010920 240.7350 119.1829  2.13102029 68329
