{"fetched_at":"2026-07-05T17:36:05.958Z","source":"https://celestrak.org/NORAD/elements/gp.php?GROUP=glo-ops&FORMAT=JSON","constellation":"glonass","records":[{"OBJECT_NAME":"COSMOS 2433 (720)","OBJECT_ID":"2007-052A","EPOCH":"2026-07-04T17:56:17.455200","CLASSIFICATION_TYPE":"U","MEAN_MOTION":2.13104407,"ECCENTRICITY":0.00031174,"INCLINATION":65.5657,"RA_OF_ASC_NODE":315.3427,"ARG_OF_PERICENTER":200.1017,"MEAN_ANOMALY":159.8949,"EPHEMERIS_TYPE":0,"NORAD_CAT_ID":32275,"ELEMENT_SET_NO":999,"REV_AT_EPOCH":14543,"BSTAR":0,"MEAN_MOTION_DOT":-4.3e-7,"MEAN_MOTION_DDOT":0},{"OBJECT_NAME":"COSMOS 2432 (719)","OBJECT_ID":"2007-052B","EPOCH":"2026-07-04T02:45:12.820608","CLASSIFICATION_TYPE":"U","MEAN_MOTION":2.13103452,"ECCENTRICITY":0.00074607,"INCLINATION":65.5822,"RA_OF_ASC_NODE":315.492,"ARG_OF_PERICENTER":326.1716,"MEAN_ANOMALY":212.2631,"EPHEMERIS_TYPE":0,"NORAD_CAT_ID":32276,"ELEMENT_SET_NO":999,"REV_AT_EPOCH":14544,"BSTAR":0,"MEAN_MOTION_DOT":-4.4e-7,"MEAN_MOTION_DDOT":0},{"OBJECT_NAME":"COSMOS 2434 (721)","OBJECT_ID":"2007-065A","EPOCH":"2026-07-05T08:34:37.511904","CLASSIFICATION_TYPE":"U","MEAN_MOTION":2.13101492,"ECCENTRICITY":0.00012677,"INCLINATION":64.3195,"RA_OF_ASC_NODE":191.3029,"ARG_OF_PERICENTER":327.6857,"MEAN_ANOMALY":30.0012,"EPHEMERIS_TYPE":0,"NORAD_CAT_ID":32393,"ELEMENT_SET_NO":999,"REV_AT_EPOCH":14415,"BSTAR":0,"MEAN_MOTION_DOT":0.00000103,"MEAN_MOTION_DDOT":0},{"OBJECT_NAME":"COSMOS 2436 (723)","OBJECT_ID":"2007-065C","EPOCH":"2026-07-04T22:58:14.056896","CLASSIFICATION_TYPE":"U","MEAN_MOTION":2.13100233,"ECCENTRICITY":0.00172829,"INCLINATION":64.328,"RA_OF_ASC_NODE":191.3887,"ARG_OF_PERICENTER":353.577,"MEAN_ANOMALY":189.2723,"EPHEMERIS_TYPE":0,"NORAD_CAT_ID":32395,"ELEMENT_SET_NO":999,"REV_AT_EPOCH":14410,"BSTAR":0,"MEAN_MOTION_DOT":9.9e-7,"MEAN_MOTION_DDOT":0},{"OBJECT_NAME":"COSMOS 2456 (730)","OBJECT_ID":"2009-070A","EPOCH":"2026-07-02T16:05:51.136800","CLASSIFICATION_TYPE":"U","MEAN_MOTION":2.1310372,"ECCENTRICITY":0.00038355,"INCLINATION":65.0199,"RA_OF_ASC_NODE":70.4441,"ARG_OF_PERICENTER":338.5659,"MEAN_ANOMALY":276.248,"EPHEMERIS_TYPE":0,"NORAD_CAT_ID":36111,"ELEMENT_SET_NO":999,"REV_AT_EPOCH":12875,"BSTAR":0,"MEAN_MOTION_DOT":-1.1e-7,"MEAN_MOTION_DDOT":0},{"OBJECT_NAME":"COSMOS 2457 (733)","OBJECT_ID":"2009-070B","EPOCH":"2026-07-04T18:08:59.559360","CLASSIFICATION_TYPE":"U","MEAN_MOTION":2.13101378,"ECCENTRICITY":0.00036339,"INCLINATION":65.0071,"RA_OF_ASC_NODE":70.2163,"ARG_OF_PERICENTER":124.1851,"MEAN_ANOMALY":57.8253,"EPHEMERIS_TYPE":0,"NORAD_CAT_ID":36112,"ELEMENT_SET_NO":999,"REV_AT_EPOCH":12880,"BSTAR":0,"MEAN_MOTION_DOT":-1.2e-7,"MEAN_MOTION_DDOT":0},{"OBJECT_NAME":"COSMOS 2460 (732)","OBJECT_ID":"2010-007C","EPOCH":"2026-07-04T23:58:47.711712","CLASSIFICATION_TYPE":"U","MEAN_MOTION":2.13101962,"ECCENTRICITY":0.00018924,"INCLINATION":65.4092,"RA_OF_ASC_NODE":313.8639,"ARG_OF_PERICENTER":127.0261,"MEAN_ANOMALY":243.3018,"EPHEMERIS_TYPE":0,"NORAD_CAT_ID":36402,"ELEMENT_SET_NO":999,"REV_AT_EPOCH":12711,"BSTAR":0,"MEAN_MOTION_DOT":-4.3e-7,"MEAN_MOTION_DDOT":0},{"OBJECT_NAME":"COSMOS 2476 (744)","OBJECT_ID":"2011-064A","EPOCH":"2026-07-03T15:11:25.405152","CLASSIFICATION_TYPE":"U","MEAN_MOTION":2.13104036,"ECCENTRICITY":0.0022386,"INCLINATION":65.2791,"RA_OF_ASC_NODE":72.3163,"ARG_OF_PERICENTER":237.052,"MEAN_ANOMALY":304.2644,"EPHEMERIS_TYPE":0,"NORAD_CAT_ID":37867,"ELEMENT_SET_NO":999,"REV_AT_EPOCH":11411,"BSTAR":0,"MEAN_MOTION_DOT":-8e-8,"MEAN_MOTION_DDOT":0},{"OBJECT_NAME":"COSMOS 2477 (745)","OBJECT_ID":"2011-064B","EPOCH":"2026-07-04T19:43:57.796608","CLASSIFICATION_TYPE":"U","MEAN_MOTION":2.13103228,"ECCENTRICITY":0.00194457,"INCLINATION":65.2859,"RA_OF_ASC_NODE":72.3558,"ARG_OF_PERICENTER":238.0164,"MEAN_ANOMALY":315.9569,"EPHEMERIS_TYPE":0,"NORAD_CAT_ID":37868,"ELEMENT_SET_NO":999,"REV_AT_EPOCH":11413,"BSTAR":0,"MEAN_MOTION_DOT":-1e-7,"MEAN_MOTION_DDOT":0},{"OBJECT_NAME":"COSMOS 2475 (743)","OBJECT_ID":"2011-064C","EPOCH":"2026-07-05T07:02:55.978944","CLASSIFICATION_TYPE":"U","MEAN_MOTION":2.13102046,"ECCENTRICITY":0.00251615,"INCLINATION":65.2933,"RA_OF_ASC_NODE":72.3614,"ARG_OF_PERICENTER":251.8133,"MEAN_ANOMALY":258.9288,"EPHEMERIS_TYPE":0,"NORAD_CAT_ID":37869,"ELEMENT_SET_NO":999,"REV_AT_EPOCH":11415,"BSTAR":0,"MEAN_MOTION_DOT":-1.2e-7,"MEAN_MOTION_DDOT":0},{"OBJECT_NAME":"COSMOS 2485 (747)","OBJECT_ID":"2013-019A","EPOCH":"2026-06-28T15:23:45.642336","CLASSIFICATION_TYPE":"U","MEAN_MOTION":2.131034,"ECCENTRICITY":0.00228978,"INCLINATION":65.4258,"RA_OF_ASC_NODE":73.2198,"ARG_OF_PERICENTER":232.6425,"MEAN_ANOMALY":127.198,"EPHEMERIS_TYPE":0,"NORAD_CAT_ID":39155,"ELEMENT_SET_NO":999,"REV_AT_EPOCH":10252,"BSTAR":0,"MEAN_MOTION_DOT":-3.7e-7,"MEAN_MOTION_DDOT":0},{"OBJECT_NAME":"COSMOS 2492 (754)","OBJECT_ID":"2014-012A","EPOCH":"2026-07-04T16:49:03.155808","CLASSIFICATION_TYPE":"U","MEAN_MOTION":2.13103564,"ECCENTRICITY":0.0010255,"INCLINATION":65.2863,"RA_OF_ASC_NODE":313.3408,"ARG_OF_PERICENTER":320.7541,"MEAN_ANOMALY":39.182,"EPHEMERIS_TYPE":0,"NORAD_CAT_ID":39620,"ELEMENT_SET_NO":999,"REV_AT_EPOCH":9561,"BSTAR":0,"MEAN_MOTION_DOT":-4.3e-7,"MEAN_MOTION_DDOT":0},{"OBJECT_NAME":"COSMOS 2500 (755)","OBJECT_ID":"2014-032A","EPOCH":"2026-07-04T20:53:10.984992","CLASSIFICATION_TYPE":"U","MEAN_MOTION":2.13106188,"ECCENTRICITY":0.00078831,"INCLINATION":65.2215,"RA_OF_ASC_NODE":313.0807,"ARG_OF_PERICENTER":187.8592,"MEAN_ANOMALY":172.1398,"EPHEMERIS_TYPE":0,"NORAD_CAT_ID":40001,"ELEMENT_SET_NO":999,"REV_AT_EPOCH":9383,"BSTAR":0,"MEAN_MOTION_DOT":-4.3e-7,"MEAN_MOTION_DDOT":0},{"OBJECT_NAME":"COSMOS 2501 (702K)","OBJECT_ID":"2014-075A","EPOCH":"2026-07-05T03:10:49.894752","CLASSIFICATION_TYPE":"U","MEAN_MOTION":2.13101464,"ECCENTRICITY":0.00226705,"INCLINATION":63.6179,"RA_OF_ASC_NODE":189.7508,"ARG_OF_PERICENTER":212.6637,"MEAN_ANOMALY":147.219,"EPHEMERIS_TYPE":0,"NORAD_CAT_ID":40315,"ELEMENT_SET_NO":999,"REV_AT_EPOCH":9023,"BSTAR":0,"MEAN_MOTION_DOT":0.000001,"MEAN_MOTION_DDOT":0},{"OBJECT_NAME":"COSMOS 2514 (751)","OBJECT_ID":"2016-008A","EPOCH":"2026-07-03T17:01:22.096992","CLASSIFICATION_TYPE":"U","MEAN_MOTION":2.13102677,"ECCENTRICITY":0.00119211,"INCLINATION":65.0109,"RA_OF_ASC_NODE":312.4399,"ARG_OF_PERICENTER":199.8976,"MEAN_ANOMALY":160.065,"EPHEMERIS_TYPE":0,"NORAD_CAT_ID":41330,"ELEMENT_SET_NO":999,"REV_AT_EPOCH":8097,"BSTAR":0,"MEAN_MOTION_DOT":-4.4e-7,"MEAN_MOTION_DDOT":0},{"OBJECT_NAME":"COSMOS 2522 (752)","OBJECT_ID":"2017-055A","EPOCH":"2026-07-03T13:07:38.677152","CLASSIFICATION_TYPE":"U","MEAN_MOTION":2.13102029,"ECCENTRICITY":0.001092,"INCLINATION":64.0801,"RA_OF_ASC_NODE":191.3275,"ARG_OF_PERICENTER":240.735,"MEAN_ANOMALY":119.1829,"EPHEMERIS_TYPE":0,"NORAD_CAT_ID":42939,"ELEMENT_SET_NO":999,"REV_AT_EPOCH":6832,"BSTAR":0,"MEAN_MOTION_DOT":8.7e-7,"MEAN_MOTION_DDOT":0}]}
